[{"OBJECT_NAME":"STARLINK-2193","OBJECT_ID":"2021-017BA","EPOCH":"2026-03-09T14:30:03.115872","MEAN_MOTION":15.29357492,"ECCENTRICITY":0.0001479,"INCLINATION":53.1561,"RA_OF_ASC_NODE":204.2135,"ARG_OF_PERICENTER":81.775,"MEAN_ANOMALY":278.3418,"EPHEMERIS_TYPE":0,"CLASSIFICATION_TYPE":"U","NORAD_CAT_ID":47770,"ELEMENT_SET_NO":999,"REV_AT_EPOCH":27785,"BSTAR":0.00042196,"MEAN_MOTION_DOT":0.0001184,"MEAN_MOTION_DDOT":0},{"OBJECT_NAME":"HORS 2","OBJECT_ID":"2023-091AG","EPOCH":"2026-03-09T22:11:34.810944","MEAN_MOTION":15.2928008,"ECCENTRICITY":0.00098173,"INCLINATION":97.5195,"RA_OF_ASC_NODE":134.7443,"ARG_OF_PERICENTER":79.3164,"MEAN_ANOMALY":280.9181,"EPHEMERIS_TYPE":0,"CLASSIFICATION_TYPE":"U","NORAD_CAT_ID":57196,"ELEMENT_SET_NO":999,"REV_AT_EPOCH":14934,"BSTAR":0.00059338338,"MEAN_MOTION_DOT":0.00016821,"MEAN_MOTION_DDOT":0}]
